{
  "norad_id": 64841,
  "name": "LEMUR-2-KARENDARRELL",
  "history": [
    {
      "epoch": "2026-03-28T20:14:01.032864Z",
      "apogee_km": 576.1786436588545,
      "perigee_km": 564.7929083230274,
      "latitude_deg": 4.8830649008268526e-05,
      "longitude_deg": 74.51488862315766,
      "height_km": 577.5475374185908,
      "semi_major_axis_km": 6948.622775990941,
      "eccentricity": 0.00081928,
      "inclination_deg": 97.7585,
      "raan_deg": 204.2769,
      "arg_perigee_deg": 134.9296,
      "mean_anomaly_deg": 225.2593,
      "mean_motion_rev_day": 14.98837874
    }
  ]
}